satname,norad_id,inclination_deg,eccentricity,mean_motion_rev_per_day,perigee_km,apogee_km,l1,l2
STARLINK-1008,44714,53.0539,0.0001283,15.06399971,546.323124587715,548.1001690504891,1 44714U 19074B   25296.43319457  .00000414  00000+0  46679-4 0  9995,2 44714  53.0539  82.7837 0001283  89.5899 270.5237 15.06399971328069
STARLINK-1010,44716,53.0455,0.0004436,15.93592009,289.28151405562767,295.19947296787177,1 44716U 19074D   25296.66671295  .00378573  66858-4  10329-2 0  9996,2 44716  53.0455  12.2079 0004436  43.4173 302.1353 15.93592009  6024
STARLINK-1011,44717,53.0472,0.0002682,15.81608703,324.0928425073489,327.6888830529442,1 44717U 19074E   25296.66671295  .00248638  00000+0  11861-2 0  9999,2 44717  53.0472  68.5887 0002682 259.7290  83.1362 15.81608703  5995
STARLINK-1012,44718,53.0527,0.0001232,15.06402667,546.3501820441497,548.0565859147619,1 44718U 19074F   25296.67647205  .00005768  00000+0  40579-3 0  9999,2 44718  53.0527  81.6925 0001232  88.5213 271.5917 15.06402667328095
STARLINK-1017,44723,53.0521,0.0002717,15.14119656,521.7772877543712,525.527720170825,1 44723U 19074L   25296.42917365  .00059952  00000+0  32422-2 0  9996,2 44723  53.0521  79.8593 0002717 157.7262 202.3848 15.14119656328106
STARLINK-1019,44724,53.0533,0.0001328,15.06404411,546.2783543984015,548.1177233847311,1 44724U 19074M   25296.67278061  .00004112  00000+0  29475-3 0  9990,2 44724  53.0533  81.7116 0001328  84.3982 275.7159 15.06404411328098
STARLINK-1020,44725,53.054,0.0001458,15.06415165,546.1553707441208,548.1747888305872,1 44725U 19074N   25296.67830791  .00002051  00000+0  15651-3 0  9996,2 44725  53.0540 101.6866 0001458  80.5665 279.5489 15.06415165327816
STARLINK-1031,44736,53.051,0.0006246,15.45673701,425.14726698779305,433.65124127645595,1 44736U 19074Z   25296.39371490  .00120254  00000+0  24226-2 0  9996,2 44736  53.0510  74.5854 0006246 185.7939 174.2996 15.45673701328182
STARLINK-1036,44741,53.0521,0.0001479,15.06400668,546.1852518663236,548.2337693641639,1 44741U 19074AE  25296.17702547  .00002816  00000+0  20784-3 0  9998,2 44741  53.0521 103.9362 0001479  87.2124 272.9035 15.06400668327744
STARLINK-1039,44744,53.0501,0.0007229,15.12104342,524.7898200302279,534.7772915698024,1 44744U 19074AH  25296.67333118  .00034803  00000+0  20044-2 0  9999,2 44744  53.0501 120.0040 0007229 122.6843 237.4847 15.12104342327563
STARLINK-1042,44747,53.0484,0.0003399,15.42716961,435.7777647642897,440.4114390072509,1 44747U 19074AL  25296.55894522  .00026468  00000+0  60414-3 0  9994,2 44747  53.0484  29.1541 0003399  85.8434 274.2959 15.42716961328856
STARLINK-1043,44748,53.0533,0.0001272,15.06395527,546.3443609925989,548.1061731533428,1 44748U 19074AM  25296.68016080  .00000387  00000+0  44851-4 0  9994,2 44748  53.0533 121.6781 0001272  95.9003 264.2131 15.06395527327545
STARLINK-1046,44751,53.0528,0.0001355,15.06392721,546.2954793622484,548.172254867236,1 44751U 19074AQ  25296.23048126 -.00000138  00000+0  96263-5 0  9995,2 44751  53.0528 123.6960 0001355  95.3216 264.7927 15.06392721327479
STARLINK-1047,44752,53.0708,0.0004324,15.29004825,475.8210373802667,481.75090436547725,1 44752U 19074AR  25296.65471766  .00014092  00000+0  50506-3 0  9993,2 44752  53.0708  64.4637 0004324 137.9828 222.1504 15.29004825328351
STARLINK-1048,44753,53.0544,0.0001366,15.0639197,546.2901628662075,548.1821748159364,1 44753U 19074AS  25296.65436031  .00000432  00000+0  47910-4 0  9999,2 44753  53.0544  81.7944 0001366 100.9381 259.1762 15.06391970328092
STARLINK-1053,44758,53.0425,0.0001605,15.59370177,388.3925395101969,390.5649441633259,1 44758U 19074AX  25296.59679336  .00062329  00000+0  77588-3 0  9990,2 44758  53.0425  43.3819 0001605   8.0505 352.0532 15.59370177328645
STARLINK-1054,44759,53.0376,0.0002854,15.85354816,313.4155331682932,317.23616176162614,1 44759U 19074AY  25296.66671295  .00400005  00000+0  15696-2 0  9993,2 44759  53.0376  68.5865 0002854 293.9080  38.2046 15.85354816  5984
STARLINK-1056,44761,53.0367,0.0002443,15.98396821,277.23995830189233,280.4925700967806,1 44761U 19074BA  25296.66671295  .00492619  11397-3  10336-2 0  9999,2 44761  53.0367  55.0660 0002443 356.6802 208.4994 15.98396821  6029
STARLINK-1060,44765,53.0548,8.8e-05,15.60533176,385.5206590269863,386.71116753972456,1 44765U 19074BE  25296.69666961  .00036453  00000+0  43808-3 0  9996,2 44765  53.0548  89.1536 0000880  12.4884 347.6151 15.60533176327992
STARLINK-1063,44768,53.0524,0.0001374,15.06389808,546.2912479426304,548.1943423103312,1 44768U 19074BH  25296.75019950  .00001741  00000+0  13576-3 0  9997,2 44768  53.0524 121.3642 0001374  92.0035 268.1111 15.06389808327564
STARLINK-1067,44771,53.0537,0.0001348,15.06395592,546.2915290496076,548.1586066631016,1 44771U 19074BL  25296.67279543 -.00000202  00000+0  53515-5 0  9999,2 44771  53.0537 121.7125 0001348  93.5669 266.5474 15.06395592327541
STARLINK-1068,44772,53.0523,0.0001182,15.06409426,546.3640959716631,548.0012415413566,1 44772U 19074BM  25296.66356649  .00004799  00000+0  34076-3 0  9995,2 44772  53.0523 101.7521 0001182  86.1869 273.9255 15.06409426327812
STARLINK-1112,44925,53.0511,0.000457,15.5339277,403.7279471275933,409.9294057558609,1 44925U 20001M   25296.16567941  .00122238  00000+0  18767-2 0  9998,2 44925  53.0511 204.5876 0004570 121.4984 238.6472 15.53392770319678
STARLINK-1114,44927,53.0536,0.0001344,15.06394011,546.2991441083523,548.1606827346804,1 44927U 20001P   25296.56958148  .00000838  00000+0  75158-4 0  9997,2 44927  53.0536 242.1745 0001344  94.5024 265.6119 15.06394011319183
STARLINK-1123,44930,53.0537,0.0001506,15.06391919,546.193363927352,548.2792863728864,1 44930U 20001S   25296.58431080  .00001855  00000+0  14341-3 0  9990,2 44930  53.0537 242.1079 0001506  93.8344 266.2818 15.06391919319182
STARLINK-1144,44933,53.0438,0.0012796,15.58123295,384.4243051109961,401.7532260903208,1 44933U 20001V   25296.38657241  .00134855  00000+0  17304-2 0  9998,2 44933  53.0438 180.8721 0012796  69.3557 290.8825 15.58123295321321
STARLINK-1091,44940,53.0343,0.0002599,15.95402707,285.46020123874405,288.9248395234381,1 44940U 20001AC  25296.66671295  .00370648  65786-4  91866-3 0  9997,2 44940  53.0343 157.7805 0002599 222.5715 118.7900 15.95402707  5969
STARLINK-1094,44941,53.0542,0.0001891,15.06396902,545.9114676705558,548.5306380861548,1 44941U 20001AD  25296.53088907  .00005335  00000+0  37680-3 0  9991,2 44941  53.0542 222.3498 0001891  94.4231 265.6974 15.06396902319457
STARLINK-1096,44942,52.9881,0.0007584,15.86966716,305.7197784310347,315.86554694339884,1 44942U 20001AE  25296.66671295  .00219657  00000+0  81352-3 0  9993,2 44942  52.9881 345.1876 0007584  18.1935 116.0996 15.86966716  5915
STARLINK-1122,44949,53.0527,0.0001164,15.063886,546.4403828776094,548.0526121558314,1 44949U 20001AM  25296.22127168  .00000363  00000+0  43251-4 0  9996,2 44949  53.0527 223.7332 0001164 100.0528 260.0593 15.06388600319403
STARLINK-1080,44961,53.0548,0.0001275,15.0640112,546.325143798239,548.091106805191,1 44961U 20001AZ  25296.15307553  .00007494  00000+0  52140-3 0  9998,2 44961  53.0548 204.0464 0001275  74.9750 285.1380 15.06401120319682
STARLINK-1090,44968,53.0546,0.0001568,15.063909,546.1535492409512,548.3253472951283,1 44968U 20001BG  25296.15676418  .00002491  00000+0  18611-3 0  9991,2 44968  53.0546 204.0298 0001568  99.4866 260.6301 15.06390900319681
STARLINK-1107,44972,53.0079,0.0005396,15.65356979,368.5697996724339,375.8547766242027,1 44972U 20001BL  25296.66671295  .00146457  00000+0  14221-2 0  9993,2 44972  53.0079 119.6537 0005396 204.4162 289.0728 15.65356979  5946
STARLINK-1132,45044,53.0561,0.0001361,15.0640393,546.2569747810585,548.1420513799194,1 45044U 20006A   25296.64698735  .00003603  00000+0  26059-3 0  9993,2 45044  53.0561 161.8265 0001361 109.0360 251.0776 15.06403930316085
STARLINK-1131,45047,53.0534,0.0001412,15.06402193,546.2269784499376,548.1826949846272,1 45047U 20006D   25296.42406110  .00010652  00000+0  73286-3 0  9992,2 45047  53.0534 183.3690 0001412  85.5327 274.5823 15.06402193315764
STARLINK-1134,45048,53.0395,0.0012003,15.26632821,477.64786929424554,494.1256447253236,1 45048U 20006E   25296.36712729  .00038218  00000+0  14420-2 0  9994,2 45048  53.0395 162.6080 0012003 112.7892 247.4375 15.26632821316050
STARLINK-1156,45054,53.0535,0.0001716,15.06389141,546.056443885579,548.4332349328643,1 45054U 20006L   25296.39449517 -.00003472  00000+0 -21437-3 0  9999,2 45054  53.0535 182.9627 0001716  97.3837 262.7347 15.06389141315769
STARLINK-1159,45057,53.0543,0.0001224,15.12944202,526.3816364456152,528.0720695168247,1 45057U 20006P   25296.66671295  .01587685  00000+0  81870-1 0  9999,2 45057  53.0543 181.6570 0001224  72.7881 286.9228 15.12944202  5702
STARLINK-1166,45060,53.0524,0.0002523,15.06424551,545.3890672241569,548.8835601382416,1 45060U 20006S   25296.68568559  .00008623  00000+0  59668-3 0  9994,2 45060  53.0524 181.6552 0002523  89.8800 270.2478 15.06424551315810
STARLINK-1169,45061,53.0531,0.0001203,15.06426259,546.2979693044199,547.9641888042406,1 45061U 20006T   25295.69784811  .00013621  00000+0  93090-3 0  9997,2 45061  53.0531 186.0907 0001203 106.5637 253.5484 15.06426259315662
STARLINK-1171,45062,53.0524,8.8e-05,15.28690217,479.1232270566652,480.3302110712202,1 45062U 20006U   25296.66671295  .00073398  00000+0  25828-2 0  9997,2 45062  53.0524 180.6719 0000880 126.9457 359.2973 15.28690217  5701
STARLINK-1133,45064,53.0522,0.0001337,15.06398932,546.2889116665592,548.1407507462236,1 45064U 20006W   25296.35948735  .00003629  00000+0  26241-3 0  9992,2 45064  53.0522 163.1158 0001337 100.7067 259.4073 15.06398932316048
STARLINK-1167,45071,53.0545,0.0001158,15.06397146,546.4183486751108,548.0222614269614,1 45071U 20006AD  25296.65068748  .00002874  00000+0  21174-3 0  9991,2 45071  53.0545 161.8131 0001158  66.5174 293.5937 15.06397146316084
